PEGASUS R/B             
1 22491U 93009C   24189.41829006  .00001198  00000+0  22179-3 0  9995
2 22491  24.9761 230.0097 0046022  23.1554 337.1020 14.55549653666005
EYESAT A (AO-27)        
1 22825U 93061C   24189.40200568  .00000174  00000+0  84055-4 0  9994
2 22825  98.7873 242.3874 0008818  27.2159 332.9483 14.30517186605508
ITAMSAT (IO-26)         
1 22826U 93061D   24189.58493466  .00000208  00000+0  96337-4 0  9999
2 22826  98.7820 242.4365 0009040  11.8119 348.3273 14.30900942605818
RADIO ROSTO (RS-15)     
1 23439U 94085A   24189.86727047 -.00000043  00000+0 -23591-5 0  9995
2 23439  64.8187  10.3244 0149676 139.8152 221.3952 11.27577645216214
JAS-2 (FO-29)           
1 24278U 96046B   24189.82289454 -.00000004  00000+0  28959-4 0  9995
2 24278  98.5803 121.7739 0350753 134.6880 228.3410 13.53191969377476
FORTE                   
1 24920U 97047A   24190.19545999  .00000295  00000+0  14406-3 0  9994
2 24920  69.9522 174.6745 0021784 171.6244 188.5246 14.27168759397769
NOAA 15                 
1 25338U 98030A   24190.13717881  .00000300  00000+0  14224-3 0  9991
2 25338  98.5674 216.8257 0009085 262.4140  97.6009 14.26621635360426
TECHSAT 1B (GO-32)      
1 25397U 98043D   24189.89411937  .00000139  00000+0  80614-4 0  9991
2 25397  98.9225 156.9273 0002397  94.3961 265.7491 14.24065791350583
ORSTED                  
1 25635U 99008B   24189.54413336  .00000566  00000+0  13826-3 0  9999
2 25635  96.4694 249.7037 0133533 301.8442  56.9815 14.50003612339059
LANDSAT 7               
1 25682U 99020A   24190.18703456  .00000671  00000+0  14647-3 0  9991
2 25682  97.8865 215.9838 0001186  90.0658 358.9255 14.60735791342265
ORBCOMM FM36            
1 25984U 99065E   24189.60757042  .00001407  00000+0  52990-3 0  9991
2 25984  45.0403 281.2385 0002897 326.2783  33.7881 14.35836034285442
DMSP 5D-3 F15 (USA 147) 
1 25991U 99067A   24189.84543030  .00000269  00000+0  15693-3 0  9991
2 25991  99.0642 205.6772 0009274 212.4161 272.3326 14.17035466270186
OPAL (OO-38)            
1 26063U 00004C   24190.18123929  .00000253  00000+0  10397-3 0  9994
2 26063 100.2167 344.1487 0035567 236.8753 122.9012 14.37369908281599
IMAGE                   
1 26113U 00017A   24186.57634029 -.00000173  00000+0 -86894-2 0  9997
2 26113  94.2236 303.7939 7535214  13.7408 358.5165  1.68651555149497
CLUSTER II-FM7 (SAMBA)  
1 26410U 00041A   24191.94727644  .00000983  00000+0  00000+0 0  9996
2 26410 139.5811 359.0182 7548772 214.0103 359.1051  0.44199929 17146
CLUSTER II-FM6 (SALSA)  
1 26411U 00041B   24191.85449043  .00004802  00000+0  00000+0 0  9995
2 26411 149.0511  29.7120 9046768 245.3837 359.2005  0.44240942 17203
CLUSTER II-FM5 (RUMBA)  
1 26463U 00045A   24191.93009012  .00003641  00000+0  00000+0 0  9993
2 26463 150.9779  22.2493 8585577 237.8575 359.1313  0.44219058 17078
CLUSTER II-FM8 (TANGO)  
1 26464U 00045B   24191.94733820  .00000984  00000+0  00000+0 0  9993
2 26464 139.6090 359.0437 7544856 214.0345 359.1173  0.44222023 17153
MEGSAT-1                
1 26546U 00057B   24190.22263227  .00003354  00000+0  30060-3 0  9993
2 26546  64.5521 168.8085 0023291 229.9856 129.9214 14.97319246291255
PHASE 3D (AO-40)        
1 26609U 00072B   24188.67412142 -.00000094  00000+0  00000+0 0  9994
2 26609   6.4554  98.7963 7974270 314.2314   3.7004  1.25590236108584
ODIN                    
1 26702U 01007A   24189.57321027  .00017746  00000+0  74514-3 0  9994
2 26702  97.4782 204.6734 0007751 190.1588 169.9494 15.23488187280003
OMNI-M1                 
1 26857U 01026A   24189.10904159 -.00000050  00000+0  00000+0 0  9994
2 26857  44.9638  48.4942 0013192 234.9539 124.9733  3.92402684177705
PCSAT (NO-44)           
1 26931U 01043C   24189.54150303  .00000261  00000+0  12974-3 0  9998
2 26931  67.0515 278.9678 0007464 277.0414  82.9838 14.31270318188869
PROBA-1                 
1 26958U 01049B   24190.19249305  .00003591  00000+0  27417-3 0  9994
2 26958  97.9179 167.1602 0058267 354.4598   5.5974 15.01318930237040
SPOT 5                  
1 27421U 02021A   24190.19372933  .00000489  00000+0  11607-3 0  9992
2 27421  98.0871 245.8644 0131498 317.8162  41.2973 14.53349904159832
FENGYUN 1D              
1 27431U 02024B   24190.02989165  .00000153  00000+0  11220-3 0  9998
2 27431  99.0527 228.7069 0016454  76.4074 283.8928 14.09995026139607
SAUDISAT 1C (SO-50)     
1 27607U 02058C   24189.89033143  .00001924  00000+0  27661-3 0  9992
2 27607  64.5540 157.9068 0025817 101.6088 258.7916 14.79104287159591
CORIOLIS                
1 27640U 03001A   24189.52741844  .00000193  00000+0  11225-3 0  9998
2 27640  98.7124 196.4210 0015335  96.0919 264.2005 14.19495206113528
CUTE-1 (CO-55)          
1 27844U 03031E   24189.96951013  .00000522  00000+0  24953-3 0  9994
2 27844  98.6764 196.7086 0011051  85.3516 274.8924 14.23304231 90772
CUBESAT XI-IV (CO-57)   
1 27848U 03031J   24189.98218694  .00000440  00000+0  21555-3 0  9995
2 27848  98.6795 196.9542 0010918  99.5118 260.7295 14.22739886 90542
